STARLINK-36719          
1 67648U 26022A   26063.07224097  .00217460  00000+0  14167-2 0  9991
2 67648  97.2828  96.7563 0002136 132.4128 227.7318 15.75276025  4664
STARLINK-36342          
1 67649U 26022B   26063.07153509  .00197296  00000+0  12878-2 0  9992
2 67649  97.2832  96.7597 0001241 143.0086 217.1265 15.75288231  4660
STARLINK-36703          
1 67650U 26022C   26063.07048157  .00276860  00000+0  17884-2 0  9993
2 67650  97.2834  96.7592 0002102  91.3875 268.7631 15.75307542  4663
STARLINK-36696          
1 67651U 26022D   26063.06871414  .00256410  00000+0  16618-2 0  9996
2 67651  97.2826  96.7615 0001720 115.6383 244.5060 15.75288271  4665
STARLINK-36699          
1 67652U 26022E   26063.06800717  .00178980  00000+0  11718-2 0  9996
2 67652  97.2835  96.7637 0001919 141.5653 218.5749 15.75270274  4667
STARLINK-36694          
1 67653U 26022F   26063.06589470  .00188351  00000+0  12313-2 0  9992
2 67653  97.2854  96.7655 0001216  40.5545 319.5810 15.75277610  4669
STARLINK-36620          
1 67654U 26022G   26063.06553954  .00452662  00000+0  28524-2 0  9991
2 67654  97.2821  96.7641 0001471 156.9941 203.1390 15.75394622  4668
STARLINK-36720          
1 67655U 26022H   26063.06377529  .00220121  00000+0  14332-2 0  9999
2 67655  97.2833  96.7681 0001986 124.1506 235.9947 15.75282701  4666
STARLINK-36688          
1 67656U 26022J   26063.06307096  .00221364  00000+0  14425-2 0  9995
2 67656  97.2845  96.7685 0000718  22.4983 337.6314 15.75260220  4665
STARLINK-36706          
1 67657U 26022K   26063.06165869  .00243315  00000+0  15782-2 0  9993
2 67657  97.2838  96.7701 0001621 106.6295 253.5149 15.75306394  4667
STARLINK-36701          
1 67658U 26022L   26063.06060219  .00415625  00000+0  26329-2 0  9991
2 67658  97.2825  96.7738 0002193 146.8047 213.3356 15.75375275  4668
STARLINK-36642          
1 67659U 26022M   26063.05953749  .00268245  00000+0  17338-2 0  9994
2 67659  97.2843  96.7734 0001522 123.3491 236.7920 15.75317258  4666
STARLINK-36673          
1 67660U 26022N   26063.05812573  .00222499  00000+0  14466-2 0  9995
2 67660  97.2836  96.7752 0001485  94.0104 266.1331 15.75308407  4662
STARLINK-36674          
1 67661U 26022P   26063.05671725  .00172286  00000+0  11294-2 0  9992
2 67661  97.2848  96.7768 0000869 103.9185 256.2177 15.75259766  4668
STARLINK-36700          
1 67662U 26022Q   26062.92754743  .00260410  00000+0  16873-2 0  9995
2 67662  97.2824  96.6464 0001782 109.7452 250.4006 15.75282618  4648
STARLINK-36675          
1 67663U 26022R   26063.05600838  .00251085  00000+0  16277-2 0  9992
2 67663  97.2828  96.7780 0002243 132.3309 227.8146 15.75296391  4669
STARLINK-36404          
1 67664U 26022S   26063.11636159  .00067585  00000+0  44918-3 0  9999
2 67664  97.2831  96.8479 0001514  77.7975 282.3460 15.75253123  4673
