[{"OBJECT_NAME":"STARLINK-36719","OBJECT_ID":"2026-022A","EPOCH":"2026-03-04T01:44:01.619808","MEAN_MOTION":15.75276025,"ECCENTRICITY":0.0002136,"INCLINATION":97.2828,"RA_OF_ASC_NODE":96.7563,"ARG_OF_PERICENTER":132.4128,"MEAN_ANOMALY":227.7318,"EPHEMERIS_TYPE":0,"CLASSIFICATION_TYPE":"U","NORAD_CAT_ID":67648,"ELEMENT_SET_NO":999,"REV_AT_EPOCH":466,"BSTAR":0.0014167,"MEAN_MOTION_DOT":0.0021746,"MEAN_MOTION_DDOT":0},{"OBJECT_NAME":"STARLINK-36342","OBJECT_ID":"2026-022B","EPOCH":"2026-03-04T01:43:00.631776","MEAN_MOTION":15.75288231,"ECCENTRICITY":0.0001241,"INCLINATION":97.2832,"RA_OF_ASC_NODE":96.7597,"ARG_OF_PERICENTER":143.0086,"MEAN_ANOMALY":217.1265,"EPHEMERIS_TYPE":0,"CLASSIFICATION_TYPE":"U","NORAD_CAT_ID":67649,"ELEMENT_SET_NO":999,"REV_AT_EPOCH":466,"BSTAR":0.0012878,"MEAN_MOTION_DOT":0.00197296,"MEAN_MOTION_DDOT":0},{"OBJECT_NAME":"STARLINK-36703","OBJECT_ID":"2026-022C","EPOCH":"2026-03-04T01:41:29.607648","MEAN_MOTION":15.75307542,"ECCENTRICITY":0.0002102,"INCLINATION":97.2834,"RA_OF_ASC_NODE":96.7592,"ARG_OF_PERICENTER":91.3875,"MEAN_ANOMALY":268.7631,"EPHEMERIS_TYPE":0,"CLASSIFICATION_TYPE":"U","NORAD_CAT_ID":67650,"ELEMENT_SET_NO":999,"REV_AT_EPOCH":466,"BSTAR":0.0017884,"MEAN_MOTION_DOT":0.0027686,"MEAN_MOTION_DDOT":0},{"OBJECT_NAME":"STARLINK-36696","OBJECT_ID":"2026-022D","EPOCH":"2026-03-04T01:38:56.901696","MEAN_MOTION":15.75288271,"ECCENTRICITY":0.000172,"INCLINATION":97.2826,"RA_OF_ASC_NODE":96.7615,"ARG_OF_PERICENTER":115.6383,"MEAN_ANOMALY":244.506,"EPHEMERIS_TYPE":0,"CLASSIFICATION_TYPE":"U","NORAD_CAT_ID":67651,"ELEMENT_SET_NO":999,"REV_AT_EPOCH":466,"BSTAR":0.0016618,"MEAN_MOTION_DOT":0.0025641,"MEAN_MOTION_DDOT":0},{"OBJECT_NAME":"STARLINK-36699","OBJECT_ID":"2026-022E","EPOCH":"2026-03-04T01:37:55.819488","MEAN_MOTION":15.75270274,"ECCENTRICITY":0.0001919,"INCLINATION":97.2835,"RA_OF_ASC_NODE":96.7637,"ARG_OF_PERICENTER":141.5653,"MEAN_ANOMALY":218.5749,"EPHEMERIS_TYPE":0,"CLASSIFICATION_TYPE":"U","NORAD_CAT_ID":67652,"ELEMENT_SET_NO":999,"REV_AT_EPOCH":466,"BSTAR":0.0011718,"MEAN_MOTION_DOT":0.0017898,"MEAN_MOTION_DDOT":0},{"OBJECT_NAME":"STARLINK-36694","OBJECT_ID":"2026-022F","EPOCH":"2026-03-04T01:34:53.302080","MEAN_MOTION":15.7527761,"ECCENTRICITY":0.0001216,"INCLINATION":97.2854,"RA_OF_ASC_NODE":96.7655,"ARG_OF_PERICENTER":40.5545,"MEAN_ANOMALY":319.581,"EPHEMERIS_TYPE":0,"CLASSIFICATION_TYPE":"U","NORAD_CAT_ID":67653,"ELEMENT_SET_NO":999,"REV_AT_EPOCH":466,"BSTAR":0.0012313,"MEAN_MOTION_DOT":0.00188351,"MEAN_MOTION_DDOT":0},{"OBJECT_NAME":"STARLINK-36620","OBJECT_ID":"2026-022G","EPOCH":"2026-03-04T01:34:22.616256","MEAN_MOTION":15.75394622,"ECCENTRICITY":0.0001471,"INCLINATION":97.2821,"RA_OF_ASC_NODE":96.7641,"ARG_OF_PERICENTER":156.9941,"MEAN_ANOMALY":203.139,"EPHEMERIS_TYPE":0,"CLASSIFICATION_TYPE":"U","NORAD_CAT_ID":67654,"ELEMENT_SET_NO":999,"REV_AT_EPOCH":466,"BSTAR":0.0028524,"MEAN_MOTION_DOT":0.00452662,"MEAN_MOTION_DDOT":0},{"OBJECT_NAME":"STARLINK-36720","OBJECT_ID":"2026-022H","EPOCH":"2026-03-04T01:31:50.185056","MEAN_MOTION":15.75282701,"ECCENTRICITY":0.0001986,"INCLINATION":97.2833,"RA_OF_ASC_NODE":96.7681,"ARG_OF_PERICENTER":124.1506,"MEAN_ANOMALY":235.9947,"EPHEMERIS_TYPE":0,"CLASSIFICATION_TYPE":"U","NORAD_CAT_ID":67655,"ELEMENT_SET_NO":999,"REV_AT_EPOCH":466,"BSTAR":0.0014332,"MEAN_MOTION_DOT":0.00220121,"MEAN_MOTION_DDOT":0},{"OBJECT_NAME":"STARLINK-36688","OBJECT_ID":"2026-022J","EPOCH":"2026-03-04T01:30:49.330944","MEAN_MOTION":15.7526022,"ECCENTRICITY":7.18e-5,"INCLINATION":97.2845,"RA_OF_ASC_NODE":96.7685,"ARG_OF_PERICENTER":22.4983,"MEAN_ANOMALY":337.6314,"EPHEMERIS_TYPE":0,"CLASSIFICATION_TYPE":"U","NORAD_CAT_ID":67656,"ELEMENT_SET_NO":999,"REV_AT_EPOCH":466,"BSTAR":0.0014425,"MEAN_MOTION_DOT":0.00221364,"MEAN_MOTION_DDOT":0},{"OBJECT_NAME":"STARLINK-36706","OBJECT_ID":"2026-022K","EPOCH":"2026-03-04T01:28:47.310816","MEAN_MOTION":15.75306394,"ECCENTRICITY":0.0001621,"INCLINATION":97.2838,"RA_OF_ASC_NODE":96.7701,"ARG_OF_PERICENTER":106.6295,"MEAN_ANOMALY":253.5149,"EPHEMERIS_TYPE":0,"CLASSIFICATION_TYPE":"U","NORAD_CAT_ID":67657,"ELEMENT_SET_NO":999,"REV_AT_EPOCH":466,"BSTAR":0.0015782,"MEAN_MOTION_DOT":0.00243315,"MEAN_MOTION_DDOT":0},{"OBJECT_NAME":"STARLINK-36701","OBJECT_ID":"2026-022L","EPOCH":"2026-03-04T01:27:16.029216","MEAN_MOTION":15.75375275,"ECCENTRICITY":0.0002193,"INCLINATION":97.2825,"RA_OF_ASC_NODE":96.7738,"ARG_OF_PERICENTER":146.8047,"MEAN_ANOMALY":213.3356,"EPHEMERIS_TYPE":0,"CLASSIFICATION_TYPE":"U","NORAD_CAT_ID":67658,"ELEMENT_SET_NO":999,"REV_AT_EPOCH":466,"BSTAR":0.0026329,"MEAN_MOTION_DOT":0.00415625,"MEAN_MOTION_DDOT":0},{"OBJECT_NAME":"STARLINK-36642","OBJECT_ID":"2026-022M","EPOCH":"2026-03-04T01:25:44.039136","MEAN_MOTION":15.75317258,"ECCENTRICITY":0.0001522,"INCLINATION":97.2843,"RA_OF_ASC_NODE":96.7734,"ARG_OF_PERICENTER":123.3491,"MEAN_ANOMALY":236.792,"EPHEMERIS_TYPE":0,"CLASSIFICATION_TYPE":"U","NORAD_CAT_ID":67659,"ELEMENT_SET_NO":999,"REV_AT_EPOCH":466,"BSTAR":0.0017338,"MEAN_MOTION_DOT":0.00268245,"MEAN_MOTION_DDOT":0},{"OBJECT_NAME":"STARLINK-36673","OBJECT_ID":"2026-022N","EPOCH":"2026-03-04T01:23:42.063072","MEAN_MOTION":15.75308407,"ECCENTRICITY":0.0001485,"INCLINATION":97.2836,"RA_OF_ASC_NODE":96.7752,"ARG_OF_PERICENTER":94.0104,"MEAN_ANOMALY":266.1331,"EPHEMERIS_TYPE":0,"CLASSIFICATION_TYPE":"U","NORAD_CAT_ID":67660,"ELEMENT_SET_NO":999,"REV_AT_EPOCH":466,"BSTAR":0.0014466,"MEAN_MOTION_DOT":0.00222499,"MEAN_MOTION_DDOT":0},{"OBJECT_NAME":"STARLINK-36674","OBJECT_ID":"2026-022P","EPOCH":"2026-03-04T01:21:40.370400","MEAN_MOTION":15.75259766,"ECCENTRICITY":8.69e-5,"INCLINATION":97.2848,"RA_OF_ASC_NODE":96.7768,"ARG_OF_PERICENTER":103.9185,"MEAN_ANOMALY":256.2177,"EPHEMERIS_TYPE":0,"CLASSIFICATION_TYPE":"U","NORAD_CAT_ID":67661,"ELEMENT_SET_NO":999,"REV_AT_EPOCH":466,"BSTAR":0.0011294,"MEAN_MOTION_DOT":0.00172286,"MEAN_MOTION_DDOT":0},{"OBJECT_NAME":"STARLINK-36700","OBJECT_ID":"2026-022Q","EPOCH":"2026-03-03T22:15:40.097952","MEAN_MOTION":15.75282618,"ECCENTRICITY":0.0001782,"INCLINATION":97.2824,"RA_OF_ASC_NODE":96.6464,"ARG_OF_PERICENTER":109.7452,"MEAN_ANOMALY":250.4006,"EPHEMERIS_TYPE":0,"CLASSIFICATION_TYPE":"U","NORAD_CAT_ID":67662,"ELEMENT_SET_NO":999,"REV_AT_EPOCH":464,"BSTAR":0.0016873,"MEAN_MOTION_DOT":0.0026041,"MEAN_MOTION_DDOT":0},{"OBJECT_NAME":"STARLINK-36675","OBJECT_ID":"2026-022R","EPOCH":"2026-03-04T01:20:39.124032","MEAN_MOTION":15.75296391,"ECCENTRICITY":0.0002243,"INCLINATION":97.2828,"RA_OF_ASC_NODE":96.778,"ARG_OF_PERICENTER":132.3309,"MEAN_ANOMALY":227.8146,"EPHEMERIS_TYPE":0,"CLASSIFICATION_TYPE":"U","NORAD_CAT_ID":67663,"ELEMENT_SET_NO":999,"REV_AT_EPOCH":466,"BSTAR":0.0016277,"MEAN_MOTION_DOT":0.00251085,"MEAN_MOTION_DDOT":0},{"OBJECT_NAME":"STARLINK-36404","OBJECT_ID":"2026-022S","EPOCH":"2026-03-04T02:47:33.641376","MEAN_MOTION":15.75253123,"ECCENTRICITY":0.0001514,"INCLINATION":97.2831,"RA_OF_ASC_NODE":96.8479,"ARG_OF_PERICENTER":77.7975,"MEAN_ANOMALY":282.346,"EPHEMERIS_TYPE":0,"CLASSIFICATION_TYPE":"U","NORAD_CAT_ID":67664,"ELEMENT_SET_NO":999,"REV_AT_EPOCH":467,"BSTAR":0.00044918,"MEAN_MOTION_DOT":0.00067585,"MEAN_MOTION_DDOT":0}]
